OBJECT_NAME,OBJECT_ID,EPOCH,MEAN_MOTION,ECCENTRICITY,INCLINATION,RA_OF_ASC_NODE,ARG_OF_PERICENTER,MEAN_ANOMALY,EPHEMERIS_TYPE,CLASSIFICATION_TYPE,NORAD_CAT_ID,ELEMENT_SET_NO,REV_AT_EPOCH,BSTAR,MEAN_MOTION_DOT,MEAN_MOTION_DDOT
SIRION PATHFINDER-2,2018-099B,2026-06-15T15:53:32.404704,15.14537445,.00072754,97.4253,215.7559,311.6341,48.4267,0,U,43759,999,41239,.2142054E-3,.3885E-4,0
CORVUS BC4,2018-099K,2026-06-15T22:21:05.656608,15.12487398,.00083539,97.4064,209.9482,17.0793,343.0717,0,U,43767,999,41221,.24447382E-3,.4194E-4,0
M2 PATHFINDER,2020-037E,2026-06-15T18:48:00.927648,15.04672203,.00124199,97.8148,357.9995,150.2763,209.9171,0,U,45727,999,32528,.12730693E-3,.1729E-4,0
NETSAT-4,2020-068U,2026-06-15T19:53:02.402592,15.43826322,.00039862,97.8598,174.9600,344.1130,15.9991,0,U,46504,999,31556,.33208991E-3,.14964E-3,0
NETSAT-3,2020-068V,2026-06-15T18:27:10.029312,15.42636110,.00043836,97.8647,173.1137,7.5005,352.6306,0,U,46505,999,31546,.36585031E-3,.1585E-3,0
NETSAT-1,2020-068W,2026-06-15T13:41:33.486144,15.34611179,.00052232,97.8738,167.2499,37.2483,322.9120,0,U,46506,999,31505,.31947436E-3,.10634E-3,0
NETSAT-2,2020-068X,2026-06-15T22:26:37.210560,15.45951801,.00036062,97.8608,174.9653,30.8062,329.3397,0,U,46507,999,31554,.41606755E-3,.20194E-3,0
GREENCUBE (IO-117),2022-080E,2026-06-13T07:02:28.697280,6.42583230,.00089108,70.1444,299.5995,290.4576,69.5127,0,U,53109,999,9181,0,-.3E-7,0
SITRO-AIS 5 (KATYS),2023-091L,2026-06-15T21:24:57.390624,15.29431945,.00127867,97.5064,230.7792,107.4254,252.8385,0,U,57176,999,16414,.34148488E-3,.9693E-4,0
SITRO-AIS 6 (CHIRKIN),2023-091AC,2026-06-15T22:24:46.356768,15.25914627,.00131,97.5070,229.9470,110.3124,249.9523,0,U,57192,999,16409,.34163267E-3,.8711E-4,0
SITRO-AIS 8 (ANOKHIN),2023-091AD,2026-06-15T21:52:43.843584,15.32106646,.00118084,97.5060,232.3821,103.8160,256.4396,0,U,57193,999,16425,.38382547E-3,.11849E-3,0
SITRO-AIS 7 (FARTUSHNIY),2023-091AE,2026-06-15T22:28:56.308512,15.25602947,.00129425,97.5068,229.7753,111.2081,249.0541,0,U,57194,999,16408,.33147174E-3,.8369E-4,0
SITRO-AIS 10 (BURDAEV),2023-091AK,2026-06-15T22:45:52.721568,15.38572152,.00076022,97.5086,237.4609,84.0283,276.1828,0,U,57199,999,16457,.44862491E-3,.17032E-3,0
SITRO-AIS 9 (SHCHUKIN),2023-091AM,2026-06-15T21:49:38.532000,15.38080195,.00078314,97.5083,237.1519,84.2397,275.9740,0,U,57201,999,16455,.42126774E-3,.15732E-3,0
SITRO-AIS 12 (SMIRENNIY),2023-091AQ,2026-06-15T23:10:09.216480,15.38374971,.00073772,97.5097,237.6755,79.0004,281.2070,0,U,57204,999,16458,.4404079E-3,.16609E-3,0
SITRO-AIS 11 (SHEFFER),2023-091AU,2026-06-15T21:56:18.896640,15.38797540,.00072629,97.5096,237.8688,79.2658,280.9404,0,U,57208,999,16459,.42250321E-3,.1615E-3,0
SITRO-AIS 25,2024-039R,2026-06-15T23:15:38.404800,14.93508207,.01436344,95.3910,234.2555,333.0532,26.3284,0,U,59066,999,12454,.17203247E-3,.2182E-4,0
SITRO-AIS 26,2024-039S,2026-06-15T23:17:22.657632,14.93304248,.01439754,95.3910,234.1542,333.6303,25.7643,0,U,59067,999,12453,.17169759E-3,.2168E-4,0
SITRO-AIS 27,2024-039T,2026-06-15T22:35:01.591296,14.93725779,.01429046,95.3916,234.4051,332.3822,26.9862,0,U,59068,999,12455,.21060516E-3,.2691E-4,0
SITRO-AIS 28,2024-039U,2026-06-15T23:39:02.799648,14.93757618,.01428317,95.3913,234.4828,332.0201,27.3396,0,U,59071,999,12456,.20758498E-3,.2653E-4,0
GRBBETA,2024-128C,2026-06-15T11:52:01.565184,15.06630585,.00408509,61.9889,222.2055,134.3380,226.1074,0,U,60237,999,10601,.20649176E-3,.2913E-4,0
OOV-CUBE (TUBSAT-30),2024-128F,2026-06-15T14:11:55.351968,15.02768887,.00447908,61.9945,231.1374,133.3400,227.1438,0,U,60240,999,10587,.14515979E-3,.1776E-4,0
ROBUSTA-3A (MEDITERRANEE),2024-128J,2026-06-15T11:32:52.840032,15.11661934,.00415309,61.9852,214.2780,127.7723,232.7146,0,U,60243,999,10616,.29892125E-3,.4988E-4,0
LASARSAT,2024-247Q,2026-06-13T14:48:20.082240,15.46168743,.0008375,44.9751,282.2745,311.5212,48.4959,0,U,62391,999,8276,.65515E-3,.32689E-3,0
CROCUBE,2024-247T,2026-06-14T14:05:15.116064,15.48102542,.0008187,44.9722,274.1999,320.7516,39.2780,0,U,62394,999,8294,.65094E-3,.34757E-3,0
FORESAIL-1 PRIME,2025-276DS,2026-06-15T16:17:28.775328,15.18690446,.00038774,97.4204,239.9765,107.8702,252.2956,0,U,66778,999,3017,.22260456E-3,.455E-4,0
KNACKSAT-2,1998-067XZ,2026-06-15T14:53:57.341184,15.59856550,.00093464,51.6314,302.3560,207.9097,152.1396,0,U,67683,999,2003,.51195506E-3,.41746E-3,0
