SIRION PATHFINDER-2     
1 43759U 18099B   26166.66218061  .00003885  00000+0  21421-3 0  9992
2 43759  97.4253 215.7559 0007275 311.6341  48.4267 15.14537445412393
CORVUS BC4              
1 43767U 18099K   26166.93131547  .00004194  00000+0  24447-3 0  9999
2 43767  97.4064 209.9482 0008353  17.0793 343.0717 15.12487398412212
M2 PATHFINDER           
1 45727U 20037E   26166.78334407  .00001729  00000+0  12731-3 0  9999
2 45727  97.8148 357.9995 0012419 150.2763 209.9171 15.04672203325281
NETSAT-4                
1 46504U 20068U   26166.82850003  .00014964  00000+0  33209-3 0  9995
2 46504  97.8598 174.9600 0003986 344.1130  15.9991 15.43826322315566
NETSAT-3                
1 46505U 20068V   26166.76886608  .00015850  00000+0  36585-3 0  9994
2 46505  97.8647 173.1137 0004383   7.5005 352.6306 15.42636110315464
NETSAT-1                
1 46506U 20068W   26166.57052646  .00010634  00000+0  31947-3 0  9993
2 46506  97.8738 167.2499 0005223  37.2483 322.9120 15.34611179315053
NETSAT-2                
1 46507U 20068X   26166.93515290  .00020194  00000+0  41607-3 0  9999
2 46507  97.8608 174.9653 0003606  30.8062 329.3397 15.45951801315544
GREENCUBE (IO-117)      
1 53109U 22080E   26164.29338770 -.00000003  00000+0  00000+0 0  9990
2 53109  70.1444 299.5995 0008910 290.4576  69.5127  6.42583230 91811
SITRO-AIS 5 (KATYS)     
1 57176U 23091L   26166.89233091  .00009693  00000+0  34148-3 0  9996
2 57176  97.5064 230.7792 0012786 107.4254 252.8385 15.29431945164148
SITRO-AIS 6 (CHIRKIN)   
1 57192U 23091AC  26166.93386987  .00008711  00000+0  34163-3 0  9999
2 57192  97.5070 229.9470 0013100 110.3124 249.9523 15.25914627164090
SITRO-AIS 8 (ANOKHIN)   
1 57193U 23091AD  26166.91161856  .00011849  00000+0  38383-3 0  9998
2 57193  97.5060 232.3821 0011808 103.8160 256.4396 15.32106646164259
SITRO-AIS 7 (FARTUSHNIY)
1 57194U 23091AE  26166.93676283  .00008369  00000+0  33147-3 0  9992
2 57194  97.5068 229.7753 0012942 111.2081 249.0541 15.25602947164085
SITRO-AIS 10 (BURDAEV)  
1 57199U 23091AK  26166.94852687  .00017032  00000+0  44862-3 0  9995
2 57199  97.5086 237.4609 0007602  84.0283 276.1828 15.38572152164575
SITRO-AIS 9 (SHCHUKIN)  
1 57201U 23091AM  26166.90947375  .00015732  00000+0  42127-3 0  9991
2 57201  97.5083 237.1519 0007831  84.2397 275.9740 15.38080195164554
SITRO-AIS 12 (SMIRENNIY)
1 57204U 23091AQ  26166.96538445  .00016609  00000+0  44041-3 0  9995
2 57204  97.5097 237.6755 0007377  79.0004 281.2070 15.38374971164588
SITRO-AIS 11 (SHEFFER)  
1 57208U 23091AU  26166.91410760  .00016150  00000+0  42250-3 0  9994
2 57208  97.5096 237.8688 0007262  79.2658 280.9404 15.38797540164597
SITRO-AIS 25            
1 59066U 24039R   26166.96919450  .00002182  00000+0  17203-3 0  9996
2 59066  95.3910 234.2555 0143634 333.0532  26.3284 14.93508207124541
SITRO-AIS 26            
1 59067U 24039S   26166.97040113  .00002168  00000+0  17170-3 0  9996
2 59067  95.3910 234.1542 0143975 333.6303  25.7643 14.93304248124537
SITRO-AIS 27            
1 59068U 24039T   26166.94099064  .00002691  00000+0  21061-3 0  9998
2 59068  95.3916 234.4051 0142904 332.3822  26.9862 14.93725779124559
SITRO-AIS 28            
1 59071U 24039U   26166.98544907  .00002653  00000+0  20758-3 0  9997
2 59071  95.3913 234.4828 0142831 332.0201  27.3396 14.93757618124564
GRBBETA                 
1 60237U 24128C   26166.49446256  .00002913  00000+0  20649-3 0  9994
2 60237  61.9889 222.2055 0040850 134.3380 226.1074 15.06630585106017
OOV-CUBE (TUBSAT-30)    
1 60240U 24128F   26166.59161287  .00001776  00000+0  14516-3 0  9999
2 60240  61.9945 231.1374 0044790 133.3400 227.1438 15.02768887105877
ROBUSTA-3A (MEDITERRAN*)
1 60243U 24128J   26166.48116713  .00004988  00000+0  29892-3 0  9995
2 60243  61.9852 214.2780 0041530 127.7723 232.7146 15.11661934106160
LASARSAT                
1 62391U 24247Q   26164.61689910  .00032689  00000+0  65515-3 0  9991
2 62391  44.9751 282.2745 0008375 311.5212  48.4959 15.46168743 82768
CROCUBE                 
1 62394U 24247T   26165.58698051  .00034757  00000+0  65094-3 0  9997
2 62394  44.9722 274.1999 0008187 320.7516  39.2780 15.48102542 82947
FORESAIL-1 PRIME        
1 66778U 25276DS  26166.67880527  .00004550  00000+0  22260-3 0  9998
2 66778  97.4204 239.9765 0003877 107.8702 252.2956 15.18690446 30179
KNACKSAT-2              
1 67683U 98067XZ  26166.62080256  .00041746  00000+0  51196-3 0  9996
2 67683  51.6314 302.3560 0009346 207.9097 152.1396 15.59856550 20038
